CCSDS_OMM_VERS,COMMENT,CREATION_DATE,ORIGINATOR,OBJECT_NAME,OBJECT_ID,CENTER_NAME,REF_FRAME,TIME_SYSTEM,MEAN_ELEMENT_THEORY,EPOCH,MEAN_MOTION,ECCENTRICITY,INCLINATION,RA_OF_ASC_NODE,ARG_OF_PERICENTER,MEAN_ANOMALY,EPHEMERIS_TYPE,CLASSIFICATION_TYPE,NORAD_CAT_ID,ELEMENT_SET_NO,REV_AT_EPOCH,BSTAR,MEAN_MOTION_DOT,MEAN_MOTION_DDOT,SEMIMAJOR_AXIS,PERIOD,APOAPSIS,PERIAPSIS,OBJECT_TYPE,RCS_SIZE,COUNTRY_CODE,LAUNCH_DATE,SITE,DECAY_DATE,FILE,GP_ID,TLE_LINE0,TLE_LINE1,TLE_LINE2
2,GENERATED VIA SPACE-TRACK.ORG API,2019-02-18T04:15:41,18 SPCS,GALILEO-FM2,2011-060B,EARTH,TEME,UTC,SGP4,2019-02-17T18:41:45.917952,1.70475536,0.0006614,56.2942,54.6889,304.1902,59.6289,0,U,37847,999,4550,0.0,-2.2e-07,0,29600.142,844.695,23241.584,23202.429,PAYLOAD,LARGE,ESA,2011-10-21,FRGUI,,2411945,126791616,0 GALILEO-FM2,1 37847U 11060B   19048.77900368 -.00000022 +00000-0 +00000-0 0  9994,2 37847 056.2942 054.6889 0006614 304.1902 059.6289 01.70475536045506
2,GENERATED VIA SPACE-TRACK.ORG API,2019-02-19T04:05:24,18 SPCS,GALILEO-FM2,2011-060B,EARTH,TEME,UTC,SGP4,2019-02-18T08:37:42.622176,1.70475531,0.0006618,56.2946,54.6728,304.31,55.7867,0,U,37847,999,4551,0.0,-2.5e-07,0,29600.142,844.696,23241.597,23202.418,PAYLOAD,LARGE,ESA,2011-10-21,FRGUI,,2412466,126813266,0 GALILEO-FM2,1 37847U 11060B   19049.35952109 -.00000025 +00000-0 +00000-0 0  9992,2 37847 056.2946 054.6728 0006618 304.3100 055.7867 01.70475531045513
2,GENERATED VIA SPACE-TRACK.ORG API,2019-02-19T22:32:17,18 SPCS,GALILEO-FM2,2011-060B,EARTH,TEME,UTC,SGP4,2019-02-19T19:42:02.954592,1.70475536,0.0006632,56.2954,54.6321,304.61,232.3509,0,U,37847,999,4565,0.0,-3.3e-07,0,29600.142,844.695,23241.638,23202.376,PAYLOAD,LARGE,ESA,2011-10-21,FRGUI,,2412953,126825653,0 GALILEO-FM2,1 37847U 11060B   19050.82086753 -.00000033  00000-0  00000+0 0  9997,2 37847  56.2954  54.6321 0006632 304.6100 232.3509  1.70475536 45656
2,GENERATED VIA SPACE-TRACK.ORG API,2019-02-21T04:51:52,18 SPCS,GALILEO-FM2,2011-060B,EARTH,TEME,UTC,SGP4,2019-02-20T02:46:03.451008,1.7047554,0.0006641,56.2958,54.6239,304.6543,53.0179,0,U,37847,999,4553,0.0,-3.5e-07,0,29600.141,844.695,23241.664,23202.349,PAYLOAD,LARGE,ESA,2011-10-21,FRGUI,,2413712,126856072,0 GALILEO-FM2,1 37847U 11060B   19051.11531772 -.00000035 +00000-0 +00000-0 0  9999,2 37847 056.2958 054.6239 0006641 304.6543 053.0179 01.70475540045532
2,GENERATED VIA SPACE-TRACK.ORG API,2019-02-22T04:18:28,18 SPCS,GALILEO-FM2,2011-060B,EARTH,TEME,UTC,SGP4,2019-02-21T06:59:42.812736,1.70475558,0.000665,56.2976,54.5912,304.8638,54.6405,0,U,37847,999,4555,0.0,-4.1e-07,0,29600.139,844.695,23241.688,23202.32,PAYLOAD,LARGE,ESA,2011-10-21,FRGUI,,2414199,126875748,0 GALILEO-FM2,1 37847U 11060B   19052.29146774 -.00000041 +00000-0 +00000-0 0  9990,2 37847 056.2976 054.5912 0006650 304.8638 054.6405 01.70475558045556
2,GENERATED VIA SPACE-TRACK.ORG API,2019-02-22T14:30:19,18 SPCS,GALILEO-FM2,2011-060B,EARTH,TEME,UTC,SGP4,2019-02-22T11:11:26.452032,1.70475584,0.0006663,56.2987,54.5586,305.0521,55.4624,0,U,37847,999,4570,0.0,-4.6e-07,0,29600.136,844.695,23241.724,23202.279,PAYLOAD,LARGE,ESA,2011-10-21,FRGUI,,2414472,126883364,0 GALILEO-FM2,1 37847U 11060B   19053.46627838 -.00000046  00000-0  00000+0 0  9999,2 37847  56.2987  54.5586 0006663 305.0521  55.4624  1.70475584 45701
2,GENERATED VIA SPACE-TRACK.ORG API,2019-02-24T04:29:55,18 SPCS,GALILEO-FM2,2011-060B,EARTH,TEME,UTC,SGP4,2019-02-23T08:16:22.764288,1.70475605,0.000667,56.2994,54.5342,305.2261,234.402,0,U,37847,999,4559,0.0,-4.8e-07,0,29600.134,844.695,23241.742,23202.255,PAYLOAD,LARGE,ESA,2011-10-21,FRGUI,,2415263,126925035,0 GALILEO-FM2,1 37847U 11060B   19054.34470792 -.00000048 +00000-0 +00000-0 0  9995,2 37847 056.2994 054.5342 0006670 305.2261 234.4020 01.70475605045590
2,GENERATED VIA SPACE-TRACK.ORG API,2019-02-25T06:30:18,18 SPCS,GALILEO-FM2,2011-060B,EARTH,TEME,UTC,SGP4,2019-02-25T02:40:45.085152,1.70475661,0.0006685,56.3008,54.4851,305.6392,238.3941,0,U,37847,999,4574,0.0,-4.8e-07,0,29600.127,844.695,23241.78,23202.205,PAYLOAD,LARGE,ESA,2011-10-21,FRGUI,,2415945,126950811,0 GALILEO-FM2,1 37847U 11060B   19056.11163293 -.00000048  00000-0  00000+0 0  9996,2 37847  56.3008  54.4851 0006685 305.6392 238.3941  1.70475661 45740
2,GENERATED VIA SPACE-TRACK.ORG API,2019-02-27T14:36:18,18 SPCS,GALILEO-FM2,2011-060B,EARTH,TEME,UTC,SGP4,2019-02-27T10:55:59.833632,1.70475743,0.0006698,56.3026,54.4201,306.3749,236.1799,0,U,37847,999,4578,0.0,-4.3e-07,0,29600.118,844.694,23241.809,23202.157,PAYLOAD,LARGE,ESA,2011-10-21,FRGUI,,2417112,126994815,0 GALILEO-FM2,1 37847U 11060B   19058.45555363 -.00000043  00000-0  00000+0 0  9993,2 37847  56.3026  54.4201 0006698 306.3749 236.1799  1.70475743 45789
2,GENERATED VIA SPACE-TRACK.ORG API,2019-03-03T22:30:18,18 SPCS,GALILEO-FM2,2011-060B,EARTH,TEME,UTC,SGP4,2019-03-03T06:21:42.601824,1.7047583,0.0006707,56.3038,54.3146,307.2655,53.2875,0,U,37847,999,4585,0.0,-3.5e-07,0,29600.108,844.694,23241.826,23202.12,PAYLOAD,LARGE,ESA,2011-10-21,FRGUI,,2419224,127090942,0 GALILEO-FM2,1 37847U 11060B   19062.26507641 -.00000035  00000-0  00000+0 0  9994,2 37847  56.3038  54.3146 0006707 307.2655  53.2875  1.70475830 45854
2,GENERATED VIA SPACE-TRACK.ORG API,2019-03-05T05:59:20,18 SPCS,GALILEO-FM2,2011-060B,EARTH,TEME,UTC,SGP4,2019-03-04T03:25:55.053120,1.70475837,0.0006714,56.3044,54.2903,307.5305,231.8248,0,U,37847,999,4574,0.0,-3.4e-07,0,29600.107,844.694,23241.845,23202.098,PAYLOAD,LARGE,ESA,2011-10-21,FRGUI,,2419825,127120013,0 GALILEO-FM2,1 37847U 11060B   19063.14299830 -.00000034 +00000-0 +00000-0 0  9990,2 37847 056.3044 054.2903 0006714 307.5305 231.8248 01.70475837045747
2,GENERATED VIA SPACE-TRACK.ORG API,2019-03-06T05:32:40,18 SPCS,GALILEO-FM2,2011-060B,EARTH,TEME,UTC,SGP4,2019-03-05T02:30:09.333216,1.70475836,0.0006719,56.3064,54.2637,307.7896,101.5247,0,U,37847,999,4576,0.0,-3.2e-07,0,29600.107,844.694,23241.86,23202.084,PAYLOAD,LARGE,ESA,2011-10-21,FRGUI,,2420310,127140470,0 GALILEO-FM2,1 37847U 11060B   19064.10427469 -.00000032 +00000-0 +00000-0 0  9996,2 37847 056.3064 054.2637 0006719 307.7896 101.5247 01.70475836045768
2,GENERATED VIA SPACE-TRACK.ORG API,2019-03-06T14:36:17,18 SPCS,GALILEO-FM2,2011-060B,EARTH,TEME,UTC,SGP4,2019-03-06T11:40:45.719328,1.70475826,0.0006722,56.3075,54.2255,308.1513,229.5549,0,U,37847,999,4590,0.0,-2.9e-07,0,29600.108,844.694,23241.87,23202.076,PAYLOAD,LARGE,ESA,2011-10-21,FRGUI,,2420632,127149245,0 GALILEO-FM2,1 37847U 11060B   19065.48664027 -.00000029  00000-0  00000+0 0  9996,2 37847  56.3075  54.2255 0006722 308.1513 229.5549  1.70475826 45902
2,GENERATED VIA SPACE-TRACK.ORG API,2019-03-07T05:11:12,18 SPCS,GALILEO-FM2,2011-060B,EARTH,TEME,UTC,SGP4,2019-03-06T18:55:34.985568,1.7047582,0.0006719,56.3078,54.2172,308.2196,54.8064,0,U,37847,999,4579,0.0,-2.8e-07,0,29600.109,844.694,23241.862,23202.086,PAYLOAD,LARGE,ESA,2011-10-21,FRGUI,,2420848,127161611,0 GALILEO-FM2,1 37847U 11060B   19065.78859937 -.00000028 +00000-0 +00000-0 0  9995,2 37847 056.3078 054.2172 0006719 308.2196 054.8064 01.70475820045799
2,GENERATED VIA SPACE-TRACK.ORG API,2019-03-09T06:36:16,18 SPCS,GALILEO-FM2,2011-060B,EARTH,TEME,UTC,SGP4,2019-03-09T03:10:32.022048,1.70475765,0.0006722,56.3096,54.1524,308.8819,52.5401,0,U,37847,999,4595,0.0,-2.4e-07,0,29600.115,844.694,23241.877,23202.083,PAYLOAD,LARGE,ESA,2011-10-21,FRGUI,,2421981,127206870,0 GALILEO-FM2,1 37847U 11060B   19068.13231507 -.00000024  00000-0  00000+0 0  9999,2 37847  56.3096  54.1524 0006722 308.8819  52.5401  1.70475765 45957
2,GENERATED VIA SPACE-TRACK.ORG API,2019-03-10T05:00:50,18 SPCS,GALILEO-FM2,2011-060B,EARTH,TEME,UTC,SGP4,2019-03-09T07:39:21.064320,1.70475761,0.0006725,56.3098,54.1472,308.918,167.0733,0,U,37847,999,4583,0.0,-2.4e-07,0,29600.116,844.694,23241.887,23202.075,PAYLOAD,LARGE,ESA,2011-10-21,FRGUI,,2422345,127221798,0 GALILEO-FM2,1 37847U 11060B   19068.31899380 -.00000024 +00000-0 +00000-0 0  9999,2 37847 056.3098 054.1472 0006725 308.9180 167.0733 01.70475761045839
2,GENERATED VIA SPACE-TRACK.ORG API,2019-03-11T05:03:42,18 SPCS,GALILEO-FM2,2011-060B,EARTH,TEME,UTC,SGP4,2019-03-10T14:36:10.329696,1.70475723,0.0006729,56.3108,54.1115,309.219,238.1451,0,U,37847,999,4585,0.0,-2.1e-07,0,29600.12,844.695,23241.903,23202.067,PAYLOAD,LARGE,ESA,2011-10-21,FRGUI,,2422861,127249774,0 GALILEO-FM2,1 37847U 11060B   19069.60845289 -.00000021 +00000-0 +00000-0 0  9998,2 37847 056.3108 054.1115 0006729 309.2190 238.1451 01.70475723045851
2,GENERATED VIA SPACE-TRACK.ORG API,2019-03-11T14:30:17,18 SPCS,GALILEO-FM2,2011-060B,EARTH,TEME,UTC,SGP4,2019-03-11T11:25:23.616192,1.7047569,0.0006729,56.3115,54.0875,309.429,50.3503,0,U,37847,999,4598,0.0,-2e-07,0,29600.124,844.695,23241.907,23202.071,PAYLOAD,LARGE,ESA,2011-10-21,FRGUI,,2423124,127257817,0 GALILEO-FM2,1 37847U 11060B   19070.47596778 -.00000020  00000-0  00000+0 0  9999,2 37847  56.3115  54.0875 0006729 309.4290  50.3503  1.70475690 45983
2,GENERATED VIA SPACE-TRACK.ORG API,2019-03-13T05:03:08,18 SPCS,GALILEO-FM2,2011-060B,EARTH,TEME,UTC,SGP4,2019-03-12T08:41:56.755680,1.70475662,0.0006731,56.312,54.063,309.5483,234.2944,0,U,37847,999,4588,0.0,-1.9e-07,0,29600.127,844.695,23241.916,23202.068,PAYLOAD,LARGE,ESA,2011-10-21,FRGUI,,2423818,127297475,0 GALILEO-FM2,1 37847U 11060B   19071.36246245 -.00000019 +00000-0 +00000-0 0  9998,2 37847 056.3120 054.0630 0006731 309.5483 234.2944 01.70475662045886
2,GENERATED VIA SPACE-TRACK.ORG API,2019-03-13T14:36:17,18 SPCS,GALILEO-FM2,2011-060B,EARTH,TEME,UTC,SGP4,2019-03-13T13:51:27.823968,1.70475621,0.0006737,56.3129,54.0293,309.8245,259.6583,0,U,37847,999,4602,0.0,-1.7e-07,0,29600.132,844.695,23241.939,23202.055,PAYLOAD,LARGE,ESA,2011-10-21,FRGUI,,2424068,127305460,0 GALILEO-FM2,1 37847U 11060B   19072.57740537 -.00000017  00000-0  00000+0 0  9992,2 37847  56.3129  54.0293 0006737 309.8245 259.6583  1.70475621 46027
